[{"OBJECT_NAME":"CATCH-1","OBJECT_ID":"2024-116A","EPOCH":"2026-03-09T23:23:31.862976","MEAN_MOTION":14.84553399,"ECCENTRICITY":0.00043121,"INCLINATION":28.9968,"RA_OF_ASC_NODE":19.2665,"ARG_OF_PERICENTER":129.2844,"MEAN_ANOMALY":230.8133,"EPHEMERIS_TYPE":0,"CLASSIFICATION_TYPE":"U","NORAD_CAT_ID":60088,"ELEMENT_SET_NO":999,"REV_AT_EPOCH":9290,"BSTAR":0.00032499126,"MEAN_MOTION_DOT":2.929e-5,"MEAN_MOTION_DDOT":0},{"OBJECT_NAME":"CLOUDSAT","OBJECT_ID":"2006-016A","EPOCH":"2026-03-09T23:36:20.904192","MEAN_MOTION":14.86172924,"ECCENTRICITY":0.00040939,"INCLINATION":98.4053,"RA_OF_ASC_NODE":100.731,"ARG_OF_PERICENTER":300.1653,"MEAN_ANOMALY":59.9155,"EPHEMERIS_TYPE":0,"CLASSIFICATION_TYPE":"U","NORAD_CAT_ID":29107,"ELEMENT_SET_NO":999,"REV_AT_EPOCH":5977,"BSTAR":0.00018027115,"MEAN_MOTION_DOT":1.521e-5,"MEAN_MOTION_DDOT":0}]
